[{"OBJECT_NAME":"STARLINK-36539","OBJECT_ID":"2026-008B","EPOCH":"2026-03-09T09:46:18.249888","MEAN_MOTION":15.27589101,"ECCENTRICITY":0.00040482,"INCLINATION":43.0027,"RA_OF_ASC_NODE":207.2864,"ARG_OF_PERICENTER":291.88,"MEAN_ANOMALY":68.1621,"EPHEMERIS_TYPE":0,"CLASSIFICATION_TYPE":"U","NORAD_CAT_ID":67446,"ELEMENT_SET_NO":999,"REV_AT_EPOCH":952,"BSTAR":0.00096121986,"MEAN_MOTION_DOT":0.00026294,"MEAN_MOTION_DDOT":0},{"OBJECT_NAME":"ELECTRON KICK STAGE R\/B","OBJECT_ID":"2021-004B","EPOCH":"2026-03-09T21:16:05.300544","MEAN_MOTION":14.42553081,"ECCENTRICITY":0.04246143,"INCLINATION":90.0967,"RA_OF_ASC_NODE":240.1441,"ARG_OF_PERICENTER":240.2414,"MEAN_ANOMALY":115.592,"EPHEMERIS_TYPE":0,"CLASSIFICATION_TYPE":"U","NORAD_CAT_ID":47347,"ELEMENT_SET_NO":999,"REV_AT_EPOCH":26720,"BSTAR":0.00099724223,"MEAN_MOTION_DOT":0.00010097,"MEAN_MOTION_DDOT":0}]
